[{"OBJECT_NAME":"STARLINK-30327","OBJECT_ID":"2023-129K","EPOCH":"2026-03-09T12:25:28.993152","MEAN_MOTION":15.26626807,"ECCENTRICITY":0.00230309,"INCLINATION":42.9974,"RA_OF_ASC_NODE":85.9834,"ARG_OF_PERICENTER":70.832,"MEAN_ANOMALY":289.5022,"EPHEMERIS_TYPE":0,"CLASSIFICATION_TYPE":"U","NORAD_CAT_ID":57707,"ELEMENT_SET_NO":999,"REV_AT_EPOCH":14090,"BSTAR":0.00029313824,"MEAN_MOTION_DOT":7.635e-5,"MEAN_MOTION_DDOT":0},{"OBJECT_NAME":"STARLINK-35570","OBJECT_ID":"2025-236E","EPOCH":"2026-03-09T07:56:43.050048","MEAN_MOTION":15.30200309,"ECCENTRICITY":0.00012741,"INCLINATION":53.1572,"RA_OF_ASC_NODE":105.2583,"ARG_OF_PERICENTER":88.6862,"MEAN_ANOMALY":271.4284,"EPHEMERIS_TYPE":0,"CLASSIFICATION_TYPE":"U","NORAD_CAT_ID":66090,"ELEMENT_SET_NO":999,"REV_AT_EPOCH":2289,"BSTAR":0.00078500439,"MEAN_MOTION_DOT":0.00022963,"MEAN_MOTION_DDOT":0}]
